[{"COMMENT":"GENERATED VIA SPACETRACK.ORG API","ORIGINATOR":"18 SPCS","NORAD_CAT_ID":"43477","OBJECT_NAME":"GRACE-FO 2","OBJECT_TYPE":"PAYLOAD","CLASSIFICATION_TYPE":"U","INTLDES":"18047B","EPOCH":"2023-12-04 22:55:55","EPOCH_MICROSECONDS":"110144","MEAN_MOTION":"15.27513765","ECCENTRICITY":"0.0016747","INCLINATION":"88.9815","RA_OF_ASC_NODE":"325.9236","ARG_OF_PERICENTER":"98.5877","MEAN_ANOMALY":"261.727","EPHEMERIS_TYPE":"0","ELEMENT_SET_NO":"999","REV_AT_EPOCH":"30805","BSTAR":"0.00014419","MEAN_MOTION_DOT":"0.00003923","MEAN_MOTION_DDOT":"0","FILE":"4122657","TLE_LINE0":"0 GRACE-FO 2","TLE_LINE1":"1 43477U 18047B   23338.95549896  .00003923  00000-0  14419-3 0  9998","TLE_LINE2":"2 43477  88.9815 325.9236 0016747  98.5877 261.7270 15.27513765308058","OBJECT_ID":"2018-047B","OBJECT_NUMBER":"43477","SEMIMAJOR_AXIS":"6861.384","PERIOD":"94.271","APOGEE":"494.740","PERIGEE":"471.759","DECAYED":"0"},{"COMMENT":"GENERATED VIA SPACETRACK.ORG API","ORIGINATOR":"18 SPCS","NORAD_CAT_ID":"43477","OBJECT_NAME":"GRACE-FO 2","OBJECT_TYPE":"PAYLOAD","CLASSIFICATION_TYPE":"U","INTLDES":"18047B","EPOCH":"2023-12-04 13:29:53","EPOCH_MICROSECONDS":"802528","MEAN_MOTION":"15.27511212","ECCENTRICITY":"0.0016732","INCLINATION":"88.9815","RA_OF_ASC_NODE":"325.9775","ARG_OF_PERICENTER":"99.8133","MEAN_ANOMALY":"260.5006","EPHEMERIS_TYPE":"0","ELEMENT_SET_NO":"999","REV_AT_EPOCH":"30799","BSTAR":"0.00016413","MEAN_MOTION_DOT":"0.00004461","MEAN_MOTION_DDOT":"0","FILE":"4122164","TLE_LINE0":"0 GRACE-FO 2","TLE_LINE1":"1 43477U 18047B   23338.56242827  .00004461  00000-0  16413-3 0  9993","TLE_LINE2":"2 43477  88.9815 325.9775 0016732  99.8133 260.5006 15.27511212307990","OBJECT_ID":"2018-047B","OBJECT_NUMBER":"43477","SEMIMAJOR_AXIS":"6861.392","PERIOD":"94.271","APOGEE":"494.738","PERIGEE":"471.777","DECAYED":"0"},{"COMMENT":"GENERATED VIA SPACETRACK.ORG API","ORIGINATOR":"18 SPCS","NORAD_CAT_ID":"43477","OBJECT_NAME":"GRACE-FO 2","OBJECT_TYPE":"PAYLOAD","CLASSIFICATION_TYPE":"U","INTLDES":"18047B","EPOCH":"2023-12-04 11:55:33","EPOCH_MICROSECONDS":"593376","MEAN_MOTION":"15.27509928","ECCENTRICITY":"0.001673","INCLINATION":"88.9815","RA_OF_ASC_NODE":"325.9865","ARG_OF_PERICENTER":"100.0341","MEAN_ANOMALY":"260.2797","EPHEMERIS_TYPE":"0","ELEMENT_SET_NO":"999","REV_AT_EPOCH":"30798","BSTAR":"0.00015567","MEAN_MOTION_DOT":"0.00004232","MEAN_MOTION_DDOT":"0","FILE":"4121694","TLE_LINE0":"0 GRACE-FO 2","TLE_LINE1":"1 43477U 18047B   23338.49691659  .00004232  00000-0  15567-3 0  9991","TLE_LINE2":"2 43477  88.9815 325.9865 0016730 100.0341 260.2797 15.27509928307988","OBJECT_ID":"2018-047B","OBJECT_NUMBER":"43477","SEMIMAJOR_AXIS":"6861.396","PERIOD":"94.271","APOGEE":"494.740","PERIGEE":"471.782","DECAYED":"0"},{"COMMENT":"GENERATED VIA SPACETRACK.ORG API","ORIGINATOR":"18 SPCS","NORAD_CAT_ID":"43477","OBJECT_NAME":"GRACE-FO 2","OBJECT_TYPE":"PAYLOAD","CLASSIFICATION_TYPE":"U","INTLDES":"18047B","EPOCH":"2023-12-03 13:54:50","EPOCH_MICROSECONDS":"224608","MEAN_MOTION":"15.27502714","ECCENTRICITY":"0.0016701","INCLINATION":"88.9816","RA_OF_ASC_NODE":"326.1121","ARG_OF_PERICENTER":"102.8837","MEAN_ANOMALY":"257.4279","EPHEMERIS_TYPE":"0","ELEMENT_SET_NO":"999","REV_AT_EPOCH":"30784","BSTAR":"0.00019473","MEAN_MOTION_DOT":"0.00005286","MEAN_MOTION_DDOT":"0","FILE":"4120389","TLE_LINE0":"0 GRACE-FO 2","TLE_LINE1":"1 43477U 18047B   23337.57974797  .00005286  00000-0  19473-3 0  9996","TLE_LINE2":"2 43477  88.9816 326.1121 0016701 102.8837 257.4279 15.27502714307849","OBJECT_ID":"2018-047B","OBJECT_NUMBER":"43477","SEMIMAJOR_AXIS":"6861.418","PERIOD":"94.272","APOGEE":"494.742","PERIGEE":"471.823","DECAYED":"0"},{"COMMENT":"GENERATED VIA SPACETRACK.ORG API","ORIGINATOR":"18 SPCS","NORAD_CAT_ID":"43477","OBJECT_NAME":"GRACE-FO 2","OBJECT_TYPE":"PAYLOAD","CLASSIFICATION_TYPE":"U","INTLDES":"18047B","EPOCH":"2023-12-03 02:54:28","EPOCH_MICROSECONDS":"395072","MEAN_MOTION":"15.27496863","ECCENTRICITY":"0.0016681","INCLINATION":"88.9816","RA_OF_ASC_NODE":"326.1749","ARG_OF_PERICENTER":"104.2733","MEAN_ANOMALY":"256.037","EPHEMERIS_TYPE":"0","ELEMENT_SET_NO":"999","REV_AT_EPOCH":"30777","BSTAR":"0.00019618","MEAN_MOTION_DOT":"0.00005324","MEAN_MOTION_DDOT":"0","FILE":"4119465","TLE_LINE0":"0 GRACE-FO 2","TLE_LINE1":"1 43477U 18047B   23337.12116198  .00005324  00000-0  19618-3 0  9994","TLE_LINE2":"2 43477  88.9816 326.1749 0016681 104.2733 256.0370 15.27496863307779","OBJECT_ID":"2018-047B","OBJECT_NUMBER":"43477","SEMIMAJOR_AXIS":"6861.435","PERIOD":"94.272","APOGEE":"494.746","PERIGEE":"471.854","DECAYED":"0"},{"COMMENT":"GENERATED VIA SPACETRACK.ORG API","ORIGINATOR":"18 SPCS","NORAD_CAT_ID":"43477","OBJECT_NAME":"GRACE-FO 2","OBJECT_TYPE":"PAYLOAD","CLASSIFICATION_TYPE":"U","INTLDES":"18047B","EPOCH":"2023-12-02 22:11:27","EPOCH_MICROSECONDS":"567168","MEAN_MOTION":"15.27495094","ECCENTRICITY":"0.0016665","INCLINATION":"88.9816","RA_OF_ASC_NODE":"326.2018","ARG_OF_PERICENTER":"104.8983","MEAN_ANOMALY":"255.4113","EPHEMERIS_TYPE":"0","ELEMENT_SET_NO":"999","REV_AT_EPOCH":"30774","BSTAR":"0.00019433","MEAN_MOTION_DOT":"0.00005273","MEAN_MOTION_DDOT":"0","FILE":"4119201","TLE_LINE0":"0 GRACE-FO 2","TLE_LINE1":"1 43477U 18047B   23336.92462462  .00005273  00000-0  19433-3 0  9997","TLE_LINE2":"2 43477  88.9816 326.2018 0016665 104.8983 255.4113 15.27495094307744","OBJECT_ID":"2018-047B","OBJECT_NUMBER":"43477","SEMIMAJOR_AXIS":"6861.440","PERIOD":"94.272","APOGEE":"494.740","PERIGEE":"471.871","DECAYED":"0"},{"COMMENT":"GENERATED VIA SPACETRACK.ORG API","ORIGINATOR":"18 SPCS","NORAD_CAT_ID":"43477","OBJECT_NAME":"GRACE-FO 2","OBJECT_TYPE":"PAYLOAD","CLASSIFICATION_TYPE":"U","INTLDES":"18047B","EPOCH":"2023-12-02 12:45:25","EPOCH_MICROSECONDS":"845696","MEAN_MOTION":"15.27490631","ECCENTRICITY":"0.0016638","INCLINATION":"88.9815","RA_OF_ASC_NODE":"326.2556","ARG_OF_PERICENTER":"106.1354","MEAN_ANOMALY":"254.1728","EPHEMERIS_TYPE":"0","ELEMENT_SET_NO":"999","REV_AT_EPOCH":"30768","BSTAR":"0.00022195","MEAN_MOTION_DOT":"0.00006018","MEAN_MOTION_DDOT":"0","FILE":"4118466","TLE_LINE0":"0 GRACE-FO 2","TLE_LINE1":"1 43477U 18047B   23336.53154914  .00006018  00000-0  22195-3 0  9991","TLE_LINE2":"2 43477  88.9815 326.2556 0016638 106.1354 254.1728 15.27490631307680","OBJECT_ID":"2018-047B","OBJECT_NUMBER":"43477","SEMIMAJOR_AXIS":"6861.454","PERIOD":"94.272","APOGEE":"494.735","PERIGEE":"471.903","DECAYED":"0"},{"COMMENT":"GENERATED VIA SPACETRACK.ORG API","ORIGINATOR":"18 SPCS","NORAD_CAT_ID":"43477","OBJECT_NAME":"GRACE-FO 2","OBJECT_TYPE":"PAYLOAD","CLASSIFICATION_TYPE":"U","INTLDES":"18047B","EPOCH":"2023-12-02 11:11:05","EPOCH_MICROSECONDS":"448192","MEAN_MOTION":"15.27496434","ECCENTRICITY":"0.001663","INCLINATION":"88.9815","RA_OF_ASC_NODE":"326.2646","ARG_OF_PERICENTER":"106.3269","MEAN_ANOMALY":"253.9811","EPHEMERIS_TYPE":"0","ELEMENT_SET_NO":"999","REV_AT_EPOCH":"30767","BSTAR":"0.00035108","MEAN_MOTION_DOT":"0.00009505","MEAN_MOTION_DDOT":"0","FILE":"4117724","TLE_LINE0":"0 GRACE-FO 2","TLE_LINE1":"1 43477U 18047B   23336.46603528  .00009505  00000-0  35108-3 0  9995","TLE_LINE2":"2 43477  88.9815 326.2646 0016630 106.3269 253.9811 15.27496434307675","OBJECT_ID":"2018-047B","OBJECT_NUMBER":"43477","SEMIMAJOR_AXIS":"6861.436","PERIOD":"94.272","APOGEE":"494.712","PERIGEE":"471.891","DECAYED":"0"},{"COMMENT":"GENERATED VIA SPACETRACK.ORG API","ORIGINATOR":"18 SPCS","NORAD_CAT_ID":"43477","OBJECT_NAME":"GRACE-FO 2","OBJECT_TYPE":"PAYLOAD","CLASSIFICATION_TYPE":"U","INTLDES":"18047B","EPOCH":"2023-12-01 22:36:23","EPOCH_MICROSECONDS":"47488","MEAN_MOTION":"15.27483497","ECCENTRICITY":"0.0016585","INCLINATION":"88.9815","RA_OF_ASC_NODE":"326.3365","ARG_OF_PERICENTER":"107.929","MEAN_ANOMALY":"252.3769","EPHEMERIS_TYPE":"0","ELEMENT_SET_NO":"999","REV_AT_EPOCH":"30759","BSTAR":"0.00022648","MEAN_MOTION_DOT":"0.00006139","MEAN_MOTION_DDOT":"0","FILE":"4116981","TLE_LINE0":"0 GRACE-FO 2","TLE_LINE1":"1 43477U 18047B   23335.94193342  .00006139  00000-0  22648-3 0  9990","TLE_LINE2":"2 43477  88.9815 326.3365 0016585 107.9290 252.3769 15.27483497307595","OBJECT_ID":"2018-047B","OBJECT_NUMBER":"43477","SEMIMAJOR_AXIS":"6861.475","PERIOD":"94.273","APOGEE":"494.720","PERIGEE":"471.960","DECAYED":"0"},{"COMMENT":"GENERATED VIA SPACETRACK.ORG API","ORIGINATOR":"18 SPCS","NORAD_CAT_ID":"43477","OBJECT_NAME":"GRACE-FO 2","OBJECT_TYPE":"PAYLOAD","CLASSIFICATION_TYPE":"U","INTLDES":"18047B","EPOCH":"2023-12-01 03:44:18","EPOCH_MICROSECONDS":"859776","MEAN_MOTION":"15.27472691","ECCENTRICITY":"0.0016544","INCLINATION":"88.9812","RA_OF_ASC_NODE":"326.4443","ARG_OF_PERICENTER":"110.4886","MEAN_ANOMALY":"249.8141","EPHEMERIS_TYPE":"0","ELEMENT_SET_NO":"999","REV_AT_EPOCH":"30747","BSTAR":"0.00018201","MEAN_MOTION_DOT":"0.00004937","MEAN_MOTION_DDOT":"0","FILE":"4115430","TLE_LINE0":"0 GRACE-FO 2","TLE_LINE1":"1 43477U 18047B   23335.15577384  .00004937  00000-0  18201-3 0  9999","TLE_LINE2":"2 43477  88.9812 326.4443 0016544 110.4886 249.8141 15.27472691307471","OBJECT_ID":"2018-047B","OBJECT_NUMBER":"43477","SEMIMAJOR_AXIS":"6861.507","PERIOD":"94.273","APOGEE":"494.724","PERIGEE":"472.021","DECAYED":"0"}]